start=new Date('2022-04-01T00:00:00.000Z').valueOf();
sats=[{"GP_ID":"200150574","OBJECT_NAME":"STARLINK-1605","OBJECT_TYPE":"PAYLOAD","CLASSIFICATION_TYPE":"U","APOAPSIS":"548.546","MEAN_MOTION":"15.06401136","TLE_LINE2":"2 46123  53.0543 256.2047 0001929  52.9822 307.1343 15.06401136 90404","MEAN_MOTION_DOT":"0.00003015","TIME_SYSTEM":"UTC","REF_FRAME":"TEME","TLE_LINE1":"1 46123U 20057G   22090.76492527  .00003015  00000-0  22123-3 0  9997","DECAY_DATE":null,"CENTER_NAME":"EARTH","MEAN_ELEMENT_THEORY":"SGP4","LAUNCH_DATE":"2020-08-18","PERIOD":"95.592","NORAD_CAT_ID":"46123","ARG_OF_PERICENTER":"52.9822","FILE":"3381898","RA_OF_ASC_NODE":"256.2047","OBJECT_ID":"2020-057G","ELEMENT_SET_NO":"999","EPHEMERIS_TYPE":"0","PERIAPSIS":"545.874","BSTAR":"0.00022123000000","ECCENTRICITY":"0.00019290","SEMIMAJOR_AXIS":"6925.345","COUNTRY_CODE":"US","INCLINATION":"53.0543","RCS_SIZE":"LARGE","MEAN_MOTION_DDOT":"0.0000000000000","EPOCH":"2022-03-31T18:21:29.543328","REV_AT_EPOCH":"9040","MEAN_ANOMALY":"307.1343","SITE":"AFETR"},{"SITE":"AFETR","MEAN_ANOMALY":"289.2649","REV_AT_EPOCH":"9041","RCS_SIZE":"LARGE","EPOCH":"2022-03-31T18:32:06.390816","MEAN_MOTION_DDOT":"0.0000000000000","INCLINATION":"53.0536","COUNTRY_CODE":"US","SEMIMAJOR_AXIS":"6925.343","ECCENTRICITY":"0.00014630","BSTAR":"0.00017908000000","PERIAPSIS":"546.195","EPHEMERIS_TYPE":"0","ELEMENT_SET_NO":"999","OBJECT_ID":"2020-057H","RA_OF_ASC_NODE":"256.1789","FILE":"3381904","ARG_OF_PERICENTER":"70.8498","NORAD_CAT_ID":"46124","PERIOD":"95.592","LAUNCH_DATE":"2020-08-18","MEAN_ELEMENT_THEORY":"SGP4","CENTER_NAME":"EARTH","DECAY_DATE":null,"TLE_LINE1":"1 46124U 20057H   22090.77229619  .00002387  00000-0  17908-3 0  9995","MEAN_MOTION_DOT":"0.00002387","TIME_SYSTEM":"UTC","REF_FRAME":"TEME","TLE_LINE2":"2 46124  53.0536 256.1789 0001463  70.8498 289.2649 15.06401778 90412","MEAN_MOTION":"15.06401778","APOAPSIS":"548.221","CLASSIFICATION_TYPE":"U","OBJECT_TYPE":"PAYLOAD","OBJECT_NAME":"STARLINK-1614","GP_ID":"200150159"},{"DECAY_DATE":null,"TLE_LINE1":"1 46125U 20057J   22090.82021590  .00001186  00000-0  98520-4 0  9996","PERIOD":"95.592","LAUNCH_DATE":"2020-08-18","MEAN_ELEMENT_THEORY":"SGP4","CENTER_NAME":"EARTH","APOAPSIS":"548.330","CLASSIFICATION_TYPE":"U","OBJECT_TYPE":"PAYLOAD","OBJECT_NAME":"STARLINK-1618","GP_ID":"200150136","MEAN_MOTION_DOT":"0.00001186","REF_FRAME":"TEME","TIME_SYSTEM":"UTC","TLE_LINE2":"2 46125  53.0558 295.9480 0001597  67.2748 292.8410 15.06396744 89850","MEAN_MOTION":"15.06396744","REV_AT_EPOCH":"8985","RCS_SIZE":"LARGE","MEAN_MOTION_DDOT":"0.0000000000000","EPOCH":"2022-03-31T19:41:06.653760","SITE":"AFETR","MEAN_ANOMALY":"292.8410","ELEMENT_SET_NO":"999","OBJECT_ID":"2020-057J","FILE":"3381902","RA_OF_ASC_NODE":"295.9480","ARG_OF_PERICENTER":"67.2748","NORAD_CAT_ID":"46125","INCLINATION":"53.0558","COUNTRY_CODE":"US","SEMIMAJOR_AXIS":"6925.359","ECCENTRICITY":"0.00015970","BSTAR":"0.00009852000000","PERIAPSIS":"546.118","EPHEMERIS_TYPE":"0"},{"ECCENTRICITY":"0.00013510","PERIAPSIS":"546.285","EPHEMERIS_TYPE":"0","BSTAR":"0.00016197000000","SEMIMAJOR_AXIS":"6925.355","COUNTRY_CODE":"US","INCLINATION":"53.0549","ARG_OF_PERICENTER":"77.7576","NORAD_CAT_ID":"46126","OBJECT_ID":"2020-057K","ELEMENT_SET_NO":"999","RA_OF_ASC_NODE":"295.7761","FILE":"3381902","MEAN_ANOMALY":"282.3564","SITE":"AFETR","MEAN_MOTION_DDOT":"0.0000000000000","RCS_SIZE":"LARGE","EPOCH":"2022-03-31T20:39:29.263968","REV_AT_EPOCH":"8986","MEAN_MOTION":"15.06397809","TLE_LINE2":"2 46126  53.0549 295.7761 0001351  77.7576 282.3564 15.06397809 89862","MEAN_MOTION_DOT":"0.00002132","REF_FRAME":"TEME","TIME_SYSTEM":"UTC","OBJECT_NAME":"STARLINK-1619","GP_ID":"200150138","APOAPSIS":"548.156","OBJECT_TYPE":"PAYLOAD","CLASSIFICATION_TYPE":"U","CENTER_NAME":"EARTH","PERIOD":"95.592","MEAN_ELEMENT_THEORY":"SGP4","LAUNCH_DATE":"2020-08-18","DECAY_DATE":null,"TLE_LINE1":"1 46126U 20057K   22090.86075537  .00002132  00000-0  16197-3 0  9992"},{"ARG_OF_PERICENTER":"74.1885","NORAD_CAT_ID":"46127","ELEMENT_SET_NO":"999","OBJECT_ID":"2020-057L","FILE":"3382239","RA_OF_ASC_NODE":"276.1078","ECCENTRICITY":"0.00015450","BSTAR":"0.00036906000000","EPHEMERIS_TYPE":"0","PERIAPSIS":"546.119","INCLINATION":"53.0533","SEMIMAJOR_AXIS":"6925.324","COUNTRY_CODE":"US","RCS_SIZE":"LARGE","EPOCH":"2022-03-31T18:50:40.990560","MEAN_MOTION_DDOT":"0.0000000000000","REV_AT_EPOCH":"9013","SITE":"AFETR","MEAN_ANOMALY":"285.9275","OBJECT_NAME":"STARLINK-1621","GP_ID":"200158441","APOAPSIS":"548.259","CLASSIFICATION_TYPE":"U","OBJECT_TYPE":"PAYLOAD","MEAN_MOTION":"15.06408049","MEAN_MOTION_DOT":"0.00005221","TIME_SYSTEM":"UTC","REF_FRAME":"TEME","TLE_LINE2":"2 46127  53.0533 276.1078 0001545  74.1885 285.9275 15.06408049 90138","DECAY_DATE":null,"TLE_LINE1":"1 46127U 20057L   22090.78519665  .00005221  00000-0  36906-3 0  9991","CENTER_NAME":"EARTH","PERIOD":"95.592","LAUNCH_DATE":"2020-08-18","MEAN_ELEMENT_THEORY":"SGP4"},{"MEAN_MOTION_DOT":"0.00000987","TIME_SYSTEM":"UTC","REF_FRAME":"TEME","TLE_LINE2":"2 46128  53.0522 257.4827 0001168  75.9910 284.1209 15.06399960 90364","MEAN_MOTION":"15.06399960","APOAPSIS":"548.023","CLASSIFICATION_TYPE":"U","OBJECT_TYPE":"PAYLOAD","OBJECT_NAME":"STARLINK-1622","GP_ID":"200113824","PERIOD":"95.592","LAUNCH_DATE":"2020-08-18","MEAN_ELEMENT_THEORY":"SGP4","CENTER_NAME":"EARTH","DECAY_DATE":null,"TLE_LINE1":"1 46128U 20057M   22090.48110505  .00000987  00000-0  85139-4 0  9996","INCLINATION":"53.0522","SEMIMAJOR_AXIS":"6925.349","COUNTRY_CODE":"US","ECCENTRICITY":"0.00011680","BSTAR":"0.00008513900000","EPHEMERIS_TYPE":"0","PERIAPSIS":"546.405","ELEMENT_SET_NO":"999","OBJECT_ID":"2020-057M","FILE":"3381376","RA_OF_ASC_NODE":"257.4827","ARG_OF_PERICENTER":"75.9910","NORAD_CAT_ID":"46128","SITE":"AFETR","MEAN_ANOMALY":"284.1209","REV_AT_EPOCH":"9036","RCS_SIZE":"LARGE","MEAN_MOTION_DDOT":"0.0000000000000","EPOCH":"2022-03-31T11:32:47.476320"},{"INCLINATION":"53.0548","SEMIMAJOR_AXIS":"6925.413","COUNTRY_CODE":"US","ECCENTRICITY":"0.00011520","BSTAR":"-0.00016667000000","EPHEMERIS_TYPE":"0","PERIAPSIS":"546.480","ELEMENT_SET_NO":"999","OBJECT_ID":"2020-057N","FILE":"3381849","RA_OF_ASC_NODE":"257.6040","ARG_OF_PERICENTER":"71.0469","NORAD_CAT_ID":"46129","SITE":"AFETR","MEAN_ANOMALY":"289.0645","REV_AT_EPOCH":"8970","MEAN_MOTION_DDOT":"0.0000000000000","RCS_SIZE":"LARGE","EPOCH":"2022-03-31T10:55:39.500256","MEAN_MOTION_DOT":"-0.00002762","REF_FRAME":"TEME","TIME_SYSTEM":"UTC","TLE_LINE2":"2 46129  53.0548 257.6040 0001152  71.0469 289.0645 15.06379123 89704","MEAN_MOTION":"15.06379123","APOAPSIS":"548.075","CLASSIFICATION_TYPE":"U","OBJECT_TYPE":"PAYLOAD","OBJECT_NAME":"STARLINK-1623","GP_ID":"200143975","PERIOD":"95.593","LAUNCH_DATE":"2020-08-18","MEAN_ELEMENT_THEORY":"SGP4","CENTER_NAME":"EARTH","DECAY_DATE":null,"TLE_LINE1":"1 46129U 20057N   22090.45531829 -.00002762  00000-0 -16667-3 0  9994"},{"FILE":"3381906","RA_OF_ASC_NODE":"255.9496","ELEMENT_SET_NO":"999","OBJECT_ID":"2020-057P","NORAD_CAT_ID":"46130","ARG_OF_PERICENTER":"65.8842","INCLINATION":"53.0536","SEMIMAJOR_AXIS":"6925.319","COUNTRY_CODE":"US","BSTAR":"0.00032644000000","EPHEMERIS_TYPE":"0","PERIAPSIS":"546.219","ECCENTRICITY":"0.00013930","REV_AT_EPOCH":"9041","EPOCH":"2022-03-31T19:41:05.760384","RCS_SIZE":"LARGE","MEAN_MOTION_DDOT":"0.0000000000000","SITE":"AFETR","MEAN_ANOMALY":"294.2293","CLASSIFICATION_TYPE":"U","OBJECT_TYPE":"PAYLOAD","APOAPSIS":"548.148","GP_ID":"200150201","OBJECT_NAME":"STARLINK-1624","MEAN_MOTION_DOT":"0.00004585","REF_FRAME":"TEME","TIME_SYSTEM":"UTC","TLE_LINE2":"2 46130  53.0536 255.9496 0001393  65.8842 294.2293 15.06409766 90416","MEAN_MOTION":"15.06409766","TLE_LINE1":"1 46130U 20057P   22090.82020556  .00004585  00000-0  32644-3 0  9993","DECAY_DATE":null,"LAUNCH_DATE":"2020-08-18","MEAN_ELEMENT_THEORY":"SGP4","PERIOD":"95.592","CENTER_NAME":"EARTH"},{"DECAY_DATE":null,"TLE_LINE1":"1 46131U 20057Q   22090.83311210  .00001606  00000-0  12667-3 0  9999","PERIOD":"95.592","MEAN_ELEMENT_THEORY":"SGP4","LAUNCH_DATE":"2020-08-18","CENTER_NAME":"EARTH","APOAPSIS":"548.227","OBJECT_TYPE":"PAYLOAD","CLASSIFICATION_TYPE":"U","OBJECT_NAME":"STARLINK-1625","GP_ID":"200150219","TLE_LINE2":"2 46131  53.0534 275.9058 0001480  74.2452 285.8700 15.06403653 90136","MEAN_MOTION_DOT":"0.00001606","REF_FRAME":"TEME","TIME_SYSTEM":"UTC","MEAN_MOTION":"15.06403653","REV_AT_EPOCH":"9013","RCS_SIZE":"LARGE","EPOCH":"2022-03-31T19:59:40.885440","MEAN_MOTION_DDOT":"0.0000000000000","MEAN_ANOMALY":"285.8700","SITE":"AFETR","OBJECT_ID":"2020-057Q","ELEMENT_SET_NO":"999","FILE":"3381920","RA_OF_ASC_NODE":"275.9058","ARG_OF_PERICENTER":"74.2452","NORAD_CAT_ID":"46131","COUNTRY_CODE":"US","SEMIMAJOR_AXIS":"6925.337","INCLINATION":"53.0534","ECCENTRICITY":"0.00014800","EPHEMERIS_TYPE":"0","PERIAPSIS":"546.177","BSTAR":"0.00012667000000"},{"OBJECT_NAME":"STARLINK-1630","GP_ID":"200150746","APOAPSIS":"548.345","CLASSIFICATION_TYPE":"U","OBJECT_TYPE":"PAYLOAD","MEAN_MOTION":"15.06402048","MEAN_MOTION_DOT":"0.00001261","REF_FRAME":"TEME","TIME_SYSTEM":"UTC","TLE_LINE2":"2 46132  53.0557 295.7314 0001643  69.3147 290.8018 15.06402048 89867","DECAY_DATE":null,"TLE_LINE1":"1 46132U 20057R   22090.87182228  .00001261  00000-0  10352-3 0  9995","CENTER_NAME":"EARTH","PERIOD":"95.592","LAUNCH_DATE":"2020-08-18","MEAN_ELEMENT_THEORY":"SGP4","ARG_OF_PERICENTER":"69.3147","NORAD_CAT_ID":"46132","ELEMENT_SET_NO":"999","OBJECT_ID":"2020-057R","RA_OF_ASC_NODE":"295.7314","FILE":"3381909","ECCENTRICITY":"0.00016430","BSTAR":"0.00010352000000","EPHEMERIS_TYPE":"0","PERIAPSIS":"546.069","INCLINATION":"53.0557","SEMIMAJOR_AXIS":"6925.342","COUNTRY_CODE":"US","EPOCH":"2022-03-31T20:55:25.444992","RCS_SIZE":"LARGE","MEAN_MOTION_DDOT":"0.0000000000000","REV_AT_EPOCH":"8986","SITE":"AFETR","MEAN_ANOMALY":"290.8018"}];
